{
"type": "FeatureCollection",
"name": "biodiversity_area",
"crs": { "type": "name", "properties": { "name": "urn:ogc:def:crs:EPSG::3857" } },
"features": [
{ "type": "Feature", "properties": { "FID": 27, "OBJECTID": 1994, "WDPAID": 1098, "WDPA_PID": "1098", "PA_DEF": "1", "NAME": "Lochinvar", "ORIG_NAME": "Lochnivar", "DESIG": "National Park", "DESIG_ENG": "National Park", "DESIG_TYPE": "National", "IUCN_CAT": "II", "INT_CRIT": "Not Applicable", "MARINE": "0", "REP_M_AREA": 0, "GIS_M_AREA": 0, "REP_AREA": 406.0, "GIS_AREA": 408.35743961200001, "NO_TAKE": "Not Applicable", "NO_TK_AREA": 0, "STATUS": "Designated", "STATUS_YR": 1971, "GOV_TYPE": "Federal or national ministry or agency", "OWN_TYPE": "State", "MANG_AUTH": "Department of National Parks and Wildlife", "MANG_PLAN": "Not Reported", "VERIF": "State Verified", "METADATAID": 943, "SUB_LOC": "ZM-07", "PARENT_ISO": "ZMB", "ISO3": "ZMB", "SUPP_INFO": "Not Applicable", "CONS_OBJ": "Not Applicable", "Shape__Are": 441422260.56787091, "Shape__Len": 100259.476296159 }, "geometry": { "type": "MultiPolygon", "coordinates": [ [ [ [ 3034667.641630929894745, -1773373.624409459996969 ], [ 3034758.227866560220718, -1773447.922552240081131 ], [ 3034844.051743059884757, -1773517.269570739939809 ], [ 3034910.801692720036954, -1773641.106593359960243 ], [ 3034939.407239640131593, -1773690.637953480007127 ], [ 3035025.227665230166167, -1773690.637953480007127 ], [ 3035144.426460899878293, -1773675.780303959967569 ], [ 3035196.871855999808758, -1773636.151624229969457 ], [ 3035254.086623359937221, -1773586.616793649969622 ], [ 3035287.461542540229857, -1773517.269570739939809 ], [ 3035311.297828509937972, -1773418.203984 ], [ 3035296.996836159843951, -1773338.951144180027768 ], [ 3035273.156987970229238, -1773259.698455669917166 ], [ 3035273.156987970229238, -1773180.446149749914184 ], [ 3035301.76264620013535, -1773130.912162950029597 ], [ 3035316.067200759891421, -1773056.611551719950512 ], [ 3035344.672859, -1772977.35981414001435 ], [ 3035344.672859, -1772898.108459109906107 ], [ 3035344.672859, -1772734.651770380092785 ], [ 3035325.602383070159703, -1772595.962550360010937 ], [ 3035335.137676689773798, -1772526.618246810045093 ], [ 3035358.977413559798151, -1772442.417276740074158 ], [ 3035397.121704999823123, -1772368.118723359890282 ], [ 3035466.254559679888189, -1772308.680882150074467 ], [ 3035571.148912109900266, -1772313.635456139920279 ], [ 3035642.664671820122749, -1772348.307326500071213 ], [ 3035718.949803790077567, -1772392.884958859998733 ], [ 3035757.09420655015856, -1772452.323012690059841 ], [ 3035785.699753450229764, -1772536.527603219961748 ], [ 3035833.37933850986883, -1772635.589478339999914 ], [ 3035947.808761919848621, -1772665.30705822003074 ], [ 3036024.094005209859461, -1772670.261822920059785 ], [ 3036105.144947220105678, -1772695.028260679915547 ], [ 3036190.968823719769716, -1772789.139597190078348 ], [ 3036248.180140180047601, -1772843.623965079896152 ], [ 3036324.468723049852997, -1772873.341807649936527 ], [ 3036410.28914865013212, -1772843.623965079896152 ], [ 3036491.340090650133789, -1772803.996686849975958 ], [ 3036601.00370401982218, -1772764.373060409910977 ], [ 3036696.359311920125037, -1772739.606549680000171 ], [ 3036763.109261590056121, -1772704.934102939907461 ], [ 3036820.324028950184584, -1772680.167654759949073 ], [ 3036872.769424050115049, -1772695.028260679915547 ], [ 3036853.698948120232671, -1772759.41827588994056 ], [ 3036777.41381616005674, -1772833.718064449960366 ], [ 3036715.429787850007415, -1772893.157347169937566 ], [ 3036686.824129620101303, -1772972.408685530070215 ], [ 3036667.753653690218925, -1773239.882723140064627 ], [ 3036639.144544559996575, -1773403.342921379953623 ], [ 3036639.144544559996575, -1773596.523011249955744 ], [ 3036648.679838180076331, -1773680.731696239905432 ], [ 3036696.359311920125037, -1773745.127994149923325 ], [ 3036739.269524720031768, -1773799.614575810031965 ], [ 3036839.39439356001094, -1773804.565994160016999 ], [ 3036906.144343220163137, -1773774.846975380089134 ], [ 3037025.339687990024686, -1773685.686674769967794 ], [ 3037068.249900789931417, -1773655.964220979949459 ], [ 3037134.9998504598625, -1773631.196656140033156 ], [ 3037134.9998504598625, -1773680.731696239905432 ], [ 3037087.323827620130032, -1773769.891978079918772 ], [ 3036996.734141080174595, -1773839.239945699926466 ], [ 3036929.98419140977785, -1773943.26233834004961 ], [ 3036901.375082280021161, -1774032.427316220011562 ], [ 3036944.288745979778469, -1774081.959500380093232 ], [ 3037058.714718489907682, -1774141.401936870068312 ], [ 3037125.464668150059879, -1774190.937935820082203 ], [ 3037187.448696460109204, -1774250.380647750105709 ], [ 3037206.519172380212694, -1774359.356278359889984 ], [ 3037196.983990089967847, -1774458.429414490005001 ], [ 3037173.144141890108585, -1774507.962495940038934 ], [ 3037134.9998504598625, -1774532.730868459912017 ], [ 3037087.323827620130032, -1774532.730868459912017 ], [ 3037025.339687990024686, -1774493.104330080095679 ], [ 3036944.288745979778469, -1774473.287558439886197 ], [ 3036834.625132619868964, -1774512.917648749891669 ], [ 3036777.41381616005674, -1774557.499382720096037 ], [ 3036772.644443890079856, -1774656.569652719888836 ], [ 3036829.859211259987205, -1774747.222832049941644 ], [ 3036882.30460635991767, -1774776.943079710006714 ], [ 3036944.288745979778469, -1774816.573681839974597 ], [ 3037001.499951120000333, -1774831.432052120100707 ], [ 3037085.100888710003346, -1774850.045595 ], [ 3037093.19459492014721, -1774854.808134689927101 ], [ 3037227.694811210036278, -1774869.140518970089033 ], [ 3037322.854719430208206, -1774831.114341580076143 ], [ 3037396.054743039887398, -1774796.890799819957465 ], [ 3037472.914728859905154, -1774728.44386574998498 ], [ 3037593.694817900191993, -1774724.641302689909935 ], [ 3037725.454793590120971, -1774724.641302689909935 ], [ 3037831.594811120070517, -1774755.062055649934337 ], [ 3037897.474798960145563, -1774766.469877070048824 ], [ 3037926.754719339776784, -1774846.324782019946724 ], [ 3037963.354786809999496, -1775028.851413300028071 ], [ 3037999.954742949921638, -1775127.720457240007818 ], [ 3038080.474802299868315, -1775218.984746060101315 ], [ 3038226.874738189857453, -1775283.630339340073988 ], [ 3038720.974758360069245, -1775755.168920509982854 ], [ 3038808.814742160029709, -1775835.027300379937515 ], [ 3038896.654725950211287, -1775945.308129569981247 ], [ 3038905.060460700187832, -1775961.805114899994805 ], [ 3038913.039953120052814, -1775965.706654210109264 ], [ 3039010.642878899816424, -1776062.050429410068318 ], [ 3039093.610631220042706, -1776148.252273750025779 ], [ 3039171.694352199789137, -1776209.102362540084869 ], [ 3039264.416474900208414, -1776244.596797560108826 ], [ 3039330.100206490140408, -1776242.068955860100687 ], [ 3038867.630172479897738, -1800694.419345049886033 ], [ 3040371.244798520114273, -1800737.378108470002189 ], [ 3040348.96164209023118, -1804784.401671519968659 ], [ 3040348.963089239783585, -1804784.658760640071705 ], [ 3040348.967096739914268, -1804784.755806 ], [ 3040356.119707989972085, -1804839.55812442000024 ], [ 3040356.21076733013615, -1804900.592582429992035 ], [ 3040296.264219659846276, -1806613.472373180091381 ], [ 3025602.72239382006228, -1806464.300958489999175 ], [ 3025548.682680970057845, -1804897.762966739945114 ], [ 3025546.625719429925084, -1804845.995096469996497 ], [ 3025543.583135100081563, -1804802.667745220009238 ], [ 3025301.301050129812211, -1785041.247995049925521 ], [ 3027964.291252229828387, -1774140.134485980030149 ], [ 3028019.998976320028305, -1773974.674499419983476 ], [ 3028018.528445839881897, -1774002.180283969966695 ], [ 3028082.098776900209486, -1774088.042186219943687 ], [ 3028177.457835690118372, -1774160.690815360052511 ], [ 3028393.598542009945959, -1774233.34325421997346 ], [ 3028525.825280330143869, -1774292.78607334010303 ], [ 3028659.32517966022715, -1774312.599223220022395 ], [ 3028843.614596670027822, -1774387.059242150047794 ], [ 3028919.524025360122323, -1774433.661120240110904 ], [ 3028995.809157330077142, -1774507.962495940038934 ], [ 3029105.469319790136069, -1774587.219274889910594 ], [ 3029215.129482250194997, -1774592.174444410018623 ], [ 3029296.183986490126699, -1774587.219274889910594 ], [ 3029372.469118460081518, -1774547.592644690070301 ], [ 3029443.988440390210599, -1774507.962495940038934 ], [ 3029467.824726359918714, -1774448.519132880028337 ], [ 3029482.129280920140445, -1774210.750999900046736 ], [ 3029482.129280920140445, -1774121.588931219885126 ], [ 3029505.969017790164798, -1774047.285075359977782 ], [ 3029529.808754660189152, -1773992.797919970005751 ], [ 3029606.093997959978878, -1774002.704424279974774 ], [ 3029691.914312229957432, -1774067.101603680057451 ], [ 3029801.574474690016359, -1774141.401936870068312 ], [ 3029939.843746290076524, -1774185.98285085009411 ], [ 3030044.734536489937454, -1774185.98285085009411 ], [ 3030106.718564790207893, -1774156.263465780066326 ], [ 3030144.859405329916626, -1774101.776057909941301 ], [ 3030159.163959890138358, -1774012.610817119944841 ], [ 3030154.394587629940361, -1773868.962631080066785 ], [ 3030168.699142199940979, -1773794.659688940038905 ], [ 3030268.824122359976172, -1773725.311852739891037 ], [ 3030435.698940869886428, -1773665.870467779925093 ], [ 3030511.984184159897268, -1773616.339159819995984 ], [ 3030602.573870690073818, -1773566.804255299968645 ], [ 3030683.628374930005521, -1773522.224399179918692 ], [ 3030759.913506899960339, -1773442.971208960050717 ], [ 3030817.128274260088801, -1773358.763375 ], [ 3030883.878223930019885, -1773304.277814360102639 ], [ 3030955.39398362999782, -1773294.371719799935818 ], [ 3031036.448487869929522, -1773269.604651279980317 ], [ 3031088.893882969859987, -1773220.070476779947057 ], [ 3031198.554045429918915, -1773200.258362750057131 ], [ 3031432.178924920037389, -1773205.209539310075343 ], [ 3031594.284371170215309, -1773225.025358279934153 ], [ 3031699.178723600227386, -1773254.743682519998401 ], [ 3031808.838774740230292, -1773264.649760389933363 ], [ 3031932.803491769824177, -1773254.743682519998401 ], [ 3032023.393178300000727, -1773205.209539310075343 ], [ 3032137.819262130185962, -1773160.630368310026824 ], [ 3032214.107845, -1773096.239255330059677 ], [ 3032261.783867840189487, -1772992.220607720082626 ], [ 3032228.408948670141399, -1772873.341807649936527 ], [ 3032175.963553570210934, -1772799.045479059917852 ], [ 3032123.518158469814807, -1772744.557629310060292 ], [ 3032090.143127969931811, -1772690.073490760056302 ], [ 3032075.838573399931192, -1772635.589478339999914 ], [ 3032109.213603899814188, -1772586.056753969984129 ], [ 3032156.893077639862895, -1772541.478755780030042 ], [ 3032309.463452899828553, -1772521.667097359895706 ], [ 3032402.912714520003647, -1772482.040361189981923 ], [ 3032474.431925130076706, -1772452.323012690059841 ], [ 3032536.412613850086927, -1772442.417276740074158 ], [ 3032588.858008950017393, -1772467.183474750025198 ], [ 3032612.697745820041746, -1772541.478755780030042 ], [ 3032631.768110429868102, -1772912.969202640000731 ], [ 3032650.842037260066718, -1772997.175441249972209 ], [ 3032731.893090589903295, -1773160.630368310026824 ], [ 3032798.643040259834379, -1773249.792379890102893 ], [ 3032855.857807619962841, -1773319.138814409961924 ], [ 3032917.841835919767618, -1773398.391587479971349 ], [ 3033013.197443820070475, -1773452.877366079948843 ], [ 3033099.017758090049028, -1773482.595978110097349 ], [ 3033208.677920559886843, -1773457.828711450099945 ], [ 3033256.357505619991571, -1773442.971208960050717 ], [ 3033299.26760709984228, -1773413.249061820097268 ], [ 3033342.177819889970124, -1773259.698455669917166 ], [ 3033375.55285038985312, -1773170.536406560102478 ], [ 3033423.232324129901826, -1773081.378396060084924 ], [ 3033475.677719229832292, -1773021.938637939980254 ], [ 3033523.357304280158132, -1772987.265890890033916 ], [ 3033571.036778020206839, -1772967.453857209999114 ], [ 3033666.392385920044035, -1772987.265890890033916 ], [ 3033728.372963329777122, -1773026.893477719975635 ], [ 3033823.732022129930556, -1773031.84831855003722 ], [ 3033880.946789490059018, -1773012.032662240089849 ], [ 3033942.927366890013218, -1772977.35981414001435 ], [ 3033981.071658339817077, -1772932.781190440058708 ], [ 3033990.606951959896833, -1772912.969202640000731 ], [ 3034004.907944300211966, -1772779.230134430108592 ], [ 3034043.052347059827298, -1772704.934102939907461 ], [ 3034090.731820799876004, -1772645.495295569999143 ], [ 3034157.481770460028201, -1772620.728909939993173 ], [ 3034248.068006089888513, -1772625.683665259974077 ], [ 3034324.356700289994478, -1772690.073490760056302 ], [ 3034429.247490489855409, -1772784.184807460056618 ], [ 3034519.837177029810846, -1772932.781190440058708 ], [ 3034543.676913899835199, -1773007.081410689977929 ], [ 3034572.282572130206972, -1773140.81830433011055 ], [ 3034596.122308989986777, -1773234.931423640111461 ], [ 3034624.727967230137438, -1773304.277814360102639 ], [ 3034667.641630929894745, -1773373.624409459996969 ] ] ] ] } },
{ "type": "Feature", "properties": { "FID": 34, "OBJECTID": 2001, "WDPAID": 1097, "WDPA_PID": "1097", "PA_DEF": "1", "NAME": "Blue Lagoon", "ORIG_NAME": "Blue Lagoon", "DESIG": "National Park", "DESIG_ENG": "National Park", "DESIG_TYPE": "National", "IUCN_CAT": "II", "INT_CRIT": "Not Applicable", "MARINE": "0", "REP_M_AREA": 0, "GIS_M_AREA": 0, "REP_AREA": 455.0, "GIS_AREA": 457.76490098900001, "NO_TAKE": "Not Applicable", "NO_TK_AREA": 0, "STATUS": "Designated", "STATUS_YR": 1973, "GOV_TYPE": "Federal or national ministry or agency", "OWN_TYPE": "State", "MANG_AUTH": "Department of National Parks and Wildlife", "MANG_PLAN": "Not Reported", "VERIF": "State Verified", "METADATAID": 943, "SUB_LOC": "ZM-02", "PARENT_ISO": "ZMB", "ISO3": "ZMB", "SUPP_INFO": "Not Applicable", "CONS_OBJ": "Not Applicable", "Shape__Are": 492938681.88622999, "Shape__Len": 141386.87394506999 }, "geometry": { "type": "MultiPolygon", "coordinates": [ [ [ [ 3061304.977122169919312, -1751073.771550110075623 ], [ 3061353.735170459840447, -1751311.795935970032588 ], [ 3061375.759063790086657, -1751650.938163769897074 ], [ 3061356.244423090014607, -1751684.356286100111902 ], [ 3061067.011339129880071, -1751726.525206610094756 ], [ 3060862.820446200203151, -1751694.844578949967399 ], [ 3060770.527682770043612, -1751668.947667770087719 ], [ 3060632.222677620127797, -1751650.060491540003568 ], [ 3060448.44009824981913, -1751718.017098420066759 ], [ 3060303.510804160032421, -1751692.525953270029277 ], [ 3060105.545008469838649, -1751607.564602 ], [ 3059986.890565109904855, -1751575.215135 ], [ 3059776.30013728979975, -1751570.187716379994527 ], [ 3059520.095768880099058, -1751632.042336029931903 ], [ 3059402.371511179953814, -1751739.401590269990265 ], [ 3059396.057580989785492, -1751779.369945229962468 ], [ 3059389.566430150065571, -1751792.726561219897121 ], [ 3059337.681751329917461, -1751906.232506389962509 ], [ 3059404.585099259857088, -1752072.051368549931794 ], [ 3059523.640070150140673, -1752164.281789100030437 ], [ 3059630.245959740132093, -1752363.063032829901204 ], [ 3059744.409663530066609, -1752708.164896639995277 ], [ 3059891.298848569858819, -1753026.403790940064937 ], [ 3059885.562889169901609, -1753152.867646990111098 ], [ 3059539.437975679989904, -1753548.108132580062374 ], [ 3059249.86881818016991, -1753543.684640299994498 ], [ 3059038.775003619957715, -1753465.4628821099177 ], [ 3058748.589247439987957, -1753367.885431749979034 ], [ 3058523.457599820103496, -1753156.693204069975764 ], [ 3058410.58520213002339, -1753004.523701549973339 ], [ 3058344.081602499820292, -1752898.574921010062099 ], [ 3058264.155098659917712, -1752752.807694090064615 ], [ 3058224.016407229937613, -1752653.311358209932223 ], [ 3057828.609798570163548, -1752563.183872370049357 ], [ 3057606.952320939861238, -1752877.593003469984978 ], [ 3057437.579493049997836, -1753138.376363290008157 ], [ 3057148.582517719827592, -1753220.420764219947159 ], [ 3056812.390197129920125, -1753129.823725260095671 ], [ 3056535.159469339996576, -1752998.853519910015166 ], [ 3056409.922481840010732, -1752966.534169009886682 ], [ 3056252.219944110140204, -1753000.996520479908213 ], [ 3056180.317237849812955, -1753074.730948559939861 ], [ 3056173.954215750098228, -1753108.047536710044369 ], [ 3056142.051719480194151, -1753261.324110209941864 ], [ 3055940.322545770090073, -1753608.845523159950972 ], [ 3055907.898295050021261, -1753682.282666790066287 ], [ 3055976.343751879874617, -1754087.653370130108669 ], [ 3056248.046019800007343, -1754378.373994479887187 ], [ 3056439.311495330184698, -1754443.465866039972752 ], [ 3056617.199485019780695, -1754475.387394709978253 ], [ 3056729.066222430206835, -1754474.538623240077868 ], [ 3056788.376913169864565, -1754487.396503089927137 ], [ 3056927.088457100093365, -1754566.19167207996361 ], [ 3056769.550560879986733, -1754627.275103480089456 ], [ 3056618.287633049767464, -1754641.731240409892052 ], [ 3056506.550582849886268, -1754662.540914539946243 ], [ 3056414.772115460131317, -1754716.469416759908199 ], [ 3056237.881103139836341, -1754837.583653209963813 ], [ 3056113.589218120090663, -1754951.645183280110359 ], [ 3055943.492256950121373, -1755105.978313189931214 ], [ 3055779.97372108977288, -1755260.261482920031995 ], [ 3055747.633405270054936, -1755347.011378679890186 ], [ 3055721.570506849791855, -1755387.134063760051504 ], [ 3055716.28828568989411, -1755586.804123689886183 ], [ 3055704.122289860155433, -1755739.947027110029012 ], [ 3055658.879154489841312, -1755866.722553370054811 ], [ 3055561.637571780011058, -1756093.708477529929951 ], [ 3055503.533806960098445, -1756267.164518130011857 ], [ 3055425.859296429902315, -1756467.387686120113358 ], [ 3055321.341315200086683, -1756587.958551000105217 ], [ 3055157.506743310019374, -1756695.666785560082644 ], [ 3055052.210416200105101, -1756696.459007810102776 ], [ 3054907.126499339938164, -1756650.967117799911648 ], [ 3054781.484865500126034, -1756558.745867480058223 ], [ 3054695.41597480000928, -1756479.536598080070689 ], [ 3054668.834104919806123, -1756439.808347699930891 ], [ 3054575.540579259861261, -1756260.834598369896412 ], [ 3054487.455024680122733, -1755868.879218 ], [ 3054432.79103212011978, -1755556.53168790997006 ], [ 3054298.989568289835006, -1755218.163606550078839 ], [ 3054192.67110561998561, -1755059.257362730102614 ], [ 3054099.900670260190964, -1754960.138154360000044 ], [ 3053869.367466980125755, -1754928.590273180045187 ], [ 3053757.327293809968978, -1754902.810138470027596 ], [ 3053691.906276219990104, -1754963.186167259933427 ], [ 3053489.316714160144329, -1755184.286940630059689 ], [ 3053273.306474300101399, -1755365.562085540033877 ], [ 3053102.889803550206125, -1755473.299560589948669 ], [ 3052951.788734249770641, -1755514.34915684000589 ], [ 3052866.281895650085062, -1755521.638742350041866 ], [ 3052708.684220870025456, -1755576.043812040006742 ], [ 3052603.689458270091563, -1755623.403572699986398 ], [ 3052465.917450840119272, -1755690.969027559971437 ], [ 3052354.256209210027009, -1755725.068298530066386 ], [ 3052209.90210293000564, -1755792.681423869915307 ], [ 3052117.982371110003442, -1755826.63372750999406 ], [ 3051973.28896301984787, -1755841.012357129948214 ], [ 3051710.435926700010896, -1755902.843649280024692 ], [ 3051644.50116966990754, -1755883.366735019953921 ], [ 3051617.840708219911903, -1755830.327624950092286 ], [ 3051604.08907756023109, -1755737.266869890037924 ], [ 3051603.541274350136518, -1755650.763432570034638 ], [ 3051563.466925580054522, -1755557.897411270067096 ], [ 3051490.447239560075104, -1755458.619997649919242 ], [ 3051490.489318320062011, -1755465.274087660014629 ], [ 3051344.872292410116643, -1755333.259971349965781 ], [ 3051177.708265869878232, -1754915.271417459938675 ], [ 3051240.950204419903457, -1754508.902856139931828 ], [ 3051179.457540350034833, -1754150.03673394001089 ], [ 3051157.364517610054463, -1753777.578169059939682 ], [ 3051183.223478720057756, -1753704.195272600045428 ], [ 3051247.218938909936696, -1753417.609620589995757 ], [ 3051273.119199549779296, -1753350.881101950071752 ], [ 3051285.270835170056671, -1753191.101521860109642 ], [ 3051198.427494769915938, -1752985.475543370004743 ], [ 3050955.091993459966034, -1753007.22492752992548 ], [ 3050757.648731459863484, -1753002.020529550034553 ], [ 3050520.808945070020854, -1753010.41042637010105 ], [ 3050297.588319149799645, -1753091.888994870008901 ], [ 3049883.834699930157512, -1753221.333506519906223 ], [ 3049693.967953800223768, -1753375.755356359994039 ], [ 3049602.386076639872044, -1753462.922453599981964 ], [ 3049490.979867959860712, -1753536.92616596003063 ], [ 3049234.890937860123813, -1753625.289833599934354 ], [ 3049064.509110120125115, -1753739.64425430004485 ], [ 3048966.757127549964935, -1753893.394282649969682 ], [ 3048934.724610109813511, -1754033.359867790015414 ], [ 3048915.976626750081778, -1754193.192023369949311 ], [ 3048916.845586690120399, -1754332.920517189893872 ], [ 3048964.067537330091, -1754518.892028660047799 ], [ 3048971.93136879010126, -1754725.11322375992313 ], [ 3048953.141863259952515, -1754878.295988020021468 ], [ 3048927.937015479896218, -1755058.143243360100314 ], [ 3048889.322176550049335, -1755198.16341455001384 ], [ 3048856.83258129004389, -1755264.942303590010852 ], [ 3048824.673716229852289, -1755384.953637060010806 ], [ 3048811.801732189953327, -1755431.627616310026497 ], [ 3048812.463526569772512, -1755538.092812370043248 ], [ 3048817.272305930033326, -1755549.015010500093922 ], [ 3048797.536028129979968, -1755585.894641879945993 ], [ 3038439.897719520144165, -1755661.671814899891615 ], [ 3032340.013528679963201, -1755736.051484789932147 ], [ 3032198.289011409971863, -1751197.83215976995416 ], [ 3032138.033774789888412, -1746137.919981899904087 ], [ 3039650.60850139008835, -1745518.74575842008926 ], [ 3043434.135354469995946, -1742966.593753190012649 ], [ 3041615.842791859991848, -1740645.80993893998675 ], [ 3041360.334058950189501, -1740321.812852730043232 ], [ 3039463.918924849946052, -1737989.492792659904808 ], [ 3039040.279578249901533, -1737513.620695459889248 ], [ 3039019.875717469956726, -1737477.240922060096636 ], [ 3039009.260068180039525, -1737444.205138320103288 ], [ 3039002.729064980056137, -1737418.984414780046791 ], [ 3038996.049895530100912, -1737399.007211280055344 ], [ 3045305.861272669862956, -1736480.997594750020653 ], [ 3046637.465021539945155, -1736989.304995399899781 ], [ 3048714.686719739809632, -1737794.974654250079766 ], [ 3049278.408621119800955, -1737483.881572159938514 ], [ 3050404.293951, -1738113.924311940092593 ], [ 3051804.470506200101227, -1739063.869751469930634 ], [ 3052657.845722619909793, -1738195.452312819892541 ], [ 3054213.646925949957222, -1736847.850809809984639 ], [ 3055954.461122979875654, -1735251.612536720000207 ], [ 3057535.197892239782959, -1736461.598525109933689 ], [ 3058828.285097289830446, -1737278.105068759992719 ], [ 3061347.222534960135818, -1735818.204930919921026 ], [ 3063793.579664640128613, -1734419.125845520058647 ], [ 3063860.816637080162764, -1734579.385951289907098 ], [ 3063874.859813480172306, -1734635.008003979921341 ], [ 3064031.230970120057464, -1734883.048184070037678 ], [ 3064091.222602180205286, -1735002.25191986002028 ], [ 3064112.597502879798412, -1735091.789134729886428 ], [ 3064282.717507190071046, -1735286.829322630073875 ], [ 3064463.055082269944251, -1735493.397018129937351 ], [ 3064630.034318460151553, -1735679.875250729965046 ], [ 3064963.992790840100497, -1736079.855737339938059 ], [ 3065044.588102180045098, -1736240.126924660056829 ], [ 3065252.978188939858228, -1736774.641379150096327 ], [ 3065427.749789480119944, -1737222.215459029888734 ], [ 3065409.493392989970744, -1737577.185977980028838 ], [ 3065410.383948919828981, -1737798.208011110080406 ], [ 3065537.733446389902383, -1738031.819197400007397 ], [ 3065757.255482229869813, -1738044.059885819908231 ], [ 3066022.863787270151079, -1738022.580946129979566 ], [ 3066408.474503370001912, -1738033.897804429987445 ], [ 3066708.146572589874268, -1738172.818449079990387 ], [ 3066841.062044589780271, -1738138.636736189946532 ], [ 3067107.115627590101212, -1738210.811018229927868 ], [ 3067314.169880469795316, -1738437.381935749901459 ], [ 3067448.198547380045056, -1738664.301437869900838 ], [ 3067516.049112849868834, -1738856.120651 ], [ 3067524.127011700067669, -1738858.094356219982728 ], [ 3067637.961209789849818, -1739149.769840480061248 ], [ 3067624.369433930143714, -1739346.601385219953954 ], [ 3067759.225204660091549, -1739874.690551619976759 ], [ 3067921.083744269795716, -1740362.628271109890193 ], [ 3068055.33505016984418, -1740690.04294063989073 ], [ 3068123.239939549937844, -1740984.31574722006917 ], [ 3068118.564520940184593, -1741419.726024209987372 ], [ 3068028.39573339978233, -1742063.038992230081931 ], [ 3068003.905445420183241, -1742572.157815339975059 ], [ 3067966.279457530006766, -1743034.509001499973238 ], [ 3067930.981828120071441, -1743087.181682930095121 ], [ 3067931.891642310190946, -1743110.564952859887853 ], [ 3067796.904069299809635, -1743072.186916710110381 ], [ 3067588.943453140091151, -1743433.007916870061308 ], [ 3067497.558388839941472, -1743533.506610060110688 ], [ 3067341.234320349991322, -1743754.245306049939245 ], [ 3067255.079824959859252, -1743661.821930940030143 ], [ 3067063.504102, -1743543.639492769958451 ], [ 3066846.176173320040107, -1743505.473867519991472 ], [ 3066678.695220179855824, -1743067.852224949980155 ], [ 3066664.848077409900725, -1742968.200038979994133 ], [ 3066485.881290529854596, -1742770.1056306399405 ], [ 3066242.252796319779009, -1742732.145560760051012 ], [ 3065999.13102841982618, -1742767.337533589918166 ], [ 3065959.990427549928427, -1742814.20499649993144 ], [ 3065960.72636070009321, -1742920.612236500019208 ], [ 3065937.223142649978399, -1743326.503799560014158 ], [ 3065931.795649560168386, -1743492.821270159911364 ], [ 3065840.678976550232619, -1743633.218095839954913 ], [ 3065674.546770370099694, -1743388.453132760012522 ], [ 3065430.592110040131956, -1743303.92976762005128 ], [ 3065199.976530340034515, -1743245.90210585994646 ], [ 3064916.790098479948938, -1743194.939675139961764 ], [ 3064818.040470620151609, -1743182.419955050107092 ], [ 3064594.278386699967086, -1743164.237710499903187 ], [ 3064463.600213820114732, -1743291.638456440065056 ], [ 3064484.79088076017797, -1743504.302189270034432 ], [ 3064314.73744550999254, -1743645.317266379948705 ], [ 3064269.014745790045708, -1743692.235655310098082 ], [ 3064290.067599209956825, -1743884.9508302800823 ], [ 3064336.883901610039175, -1743997.65022352989763 ], [ 3064377.305455869995058, -1744137.005247540073469 ], [ 3064371.411534110084176, -1744236.819742579944432 ], [ 3064385.022234289906919, -1744303.224399250000715 ], [ 3064635.378878530114889, -1744361.106083249906078 ], [ 3064596.415609600022435, -1744434.578043439891189 ], [ 3064656.846174410078675, -1744613.68462351989001 ], [ 3064802.832892349921167, -1744798.766302400035784 ], [ 3064724.997191189788282, -1744959.015681609977037 ], [ 3064607.192004229873419, -1745046.416297029936686 ], [ 3064620.347407689783722, -1745046.312220710096881 ], [ 3064206.861289210151881, -1745182.608924449887127 ], [ 3064029.307035349775106, -1745190.66142935003154 ], [ 3064016.151520569808781, -1745190.765159759903327 ], [ 3063825.078182479832321, -1745145.710972649976611 ], [ 3063495.781993010081351, -1745088.439949319930747 ], [ 3063232.672031309921294, -1745090.507618010044098 ], [ 3063022.364688950125128, -1745118.764118940103799 ], [ 3062849.491531009785831, -1744847.411304439883679 ], [ 3062560.884396530222148, -1744969.396594600053504 ], [ 3062185.684167880099267, -1744932.421001869952306 ], [ 3062053.00636299001053, -1744767.171921639936045 ], [ 3061914.471037810202688, -1744708.390352369984612 ], [ 3061796.25263290014118, -1744735.917183550074697 ], [ 3061625.770951570011675, -1744817.061489280080423 ], [ 3061548.854415449779481, -1745116.974255010019988 ], [ 3061714.778676819987595, -1745335.181661470094696 ], [ 3061781.40951463021338, -1745461.041818310040981 ], [ 3061840.744918290060014, -1745480.534122989978641 ], [ 3062025.105134500190616, -1745505.702465610112995 ], [ 3062136.839067759923637, -1745491.527256639907137 ], [ 3062308.178799720015377, -1745536.749822879908606 ], [ 3062532.908583980053663, -1745694.630894060013816 ], [ 3062671.631482500117272, -1745780.016144270077348 ], [ 3062659.197429339867085, -1745886.539976390078664 ], [ 3062475.69003175990656, -1745987.751445410074666 ], [ 3062343.544556669890881, -1745902.312777070095763 ], [ 3062131.700003460049629, -1745704.418378659989685 ], [ 3061887.688013609964401, -1745613.199672119924799 ], [ 3061770.137970909941941, -1745740.496687880018726 ], [ 3061560.091784080024809, -1745808.649002420017496 ], [ 3061478.961805239785463, -1745483.351396739948541 ], [ 3061371.701913630124182, -1745184.866966170025989 ], [ 3061365.124156239908189, -1745184.918138290056959 ], [ 3061226.856220469810069, -1745166.038291529985145 ], [ 3061009.744362929835916, -1745161.072521439986303 ], [ 3060799.87918158993125, -1745255.82096515991725 ], [ 3060538.457936559803784, -1745510.604543480090797 ], [ 3060421.123631040100008, -1745671.150835470063612 ], [ 3060713.806839989963919, -1746154.458135670050979 ], [ 3061017.023210470099002, -1746245.2315093500074 ], [ 3061372.240032049827278, -1746242.47190462006256 ], [ 3061589.451297900173813, -1746260.737123070051894 ], [ 3061715.062986799981445, -1746352.883836119901389 ], [ 3061827.878388910088688, -1746498.344726789975539 ], [ 3061842.830488959793001, -1746764.30324944993481 ], [ 3061870.445626359898597, -1746956.994114120025188 ], [ 3061904.864165760111064, -1747182.893525090068579 ], [ 3061939.0587303400971, -1747375.536361790029332 ], [ 3062083.603415589779615, -1747347.799932060064748 ], [ 3062207.557668589986861, -1747193.834648899966851 ], [ 3062311.955424760002643, -1747066.630618409952149 ], [ 3062429.869259549770504, -1746992.536795099964365 ], [ 3062574.050152710173279, -1746911.585063749924302 ], [ 3062697.547661839984357, -1746691.104720239993185 ], [ 3062775.086251279804856, -1746484.289645849959925 ], [ 3062893.492674809880555, -1746483.361566510051489 ], [ 3062953.283597830217332, -1746569.366626319941133 ], [ 3062940.488869510125369, -1746622.681881160009652 ], [ 3062928.236378440167755, -1746755.815626560011879 ], [ 3062968.51945126010105, -1746875.234203879954293 ], [ 3063100.989200020208955, -1747007.233781700022519 ], [ 3063194.035819040145725, -1747146.194992319913581 ], [ 3062773.655684500001371, -1747242.621424779994413 ], [ 3062537.105774059891701, -1747284.386243759887293 ], [ 3062418.785400489810854, -1747298.616119960090145 ], [ 3062326.733309810049832, -1747305.987984250066802 ], [ 3062057.829502569977194, -1747427.826182380085811 ], [ 3062005.696692599914968, -1747501.406236290000379 ], [ 3061927.294709189794958, -1747581.843575089937076 ], [ 3061881.515013880096376, -1747622.113523530075327 ], [ 3061876.553615500219166, -1747861.630688789999112 ], [ 3061936.793712660204619, -1748014.162093840073794 ], [ 3061943.866619150154293, -1748087.281849360093474 ], [ 3061991.085452829953283, -1748259.873161710100248 ], [ 3062097.333227629773319, -1748405.395124559989199 ], [ 3062157.711249640211463, -1748577.885456129908562 ], [ 3062177.762450280133635, -1748624.295736260013655 ], [ 3062179.38281679013744, -1748863.771324509987608 ], [ 3062173.119091679807752, -1748910.387690260075033 ], [ 3061964.440242160111666, -1749184.77136041992344 ], [ 3061866.655531649943441, -1749318.586261529941112 ], [ 3061769.318770780228078, -1749518.924601519946009 ], [ 3061763.862334620207548, -1749685.284412299981341 ], [ 3061778.232901639770716, -1749864.796306259930134 ], [ 3061812.026716060005128, -1749997.588372990023345 ], [ 3061819.099956510122865, -1750070.714096880052239 ], [ 3061813.374349819961935, -1750197.162598809925839 ], [ 3061780.613357630092651, -1750217.376721129985526 ], [ 3061662.277955939993262, -1750231.60499733989127 ], [ 3061462.795877459924668, -1749920.4762014800217 ], [ 3061365.050128779839724, -1750060.94573265989311 ], [ 3061173.405165090225637, -1749936.032845170004293 ], [ 3061192.650189979933202, -1749862.702690480044112 ], [ 3061270.032264220062643, -1749629.255460140062496 ], [ 3061196.186476250179112, -1749410.291435349965468 ], [ 3061110.078735049813986, -1749324.476349879987538 ], [ 3060951.826835620217025, -1749272.484372329898179 ], [ 3060716.145551170222461, -1749447.281130250077695 ], [ 3060587.062363950069994, -1749820.833070860011503 ], [ 3060463.307261520065367, -1750008.069568539969623 ], [ 3060483.93565372005105, -1750140.966416799928993 ], [ 3060484.381265650037676, -1750207.491488870000467 ], [ 3060347.731915280222893, -1750434.747728989925236 ], [ 3060198.321900359820575, -1750721.981111950008199 ], [ 3060068.824270680081099, -1751035.675566359888762 ], [ 3060188.365819059778005, -1751201.079346860060468 ], [ 3060352.674055390059948, -1751173.195771239930764 ], [ 3060596.916365279816091, -1751291.060713510029018 ], [ 3060715.614779840223491, -1751330.059492340078577 ], [ 3060919.891722740139812, -1751375.046679510036483 ], [ 3061110.383973089978099, -1751326.994844699976966 ], [ 3061287.044554079882801, -1751179.252004970097914 ], [ 3061299.665957939811051, -1751099.31645273999311 ], [ 3061304.977122169919312, -1751073.771550110075623 ] ] ] ] } }
]
}
