{
"type": "FeatureCollection",
"name": "wetland boundary",
"crs": { "type": "name", "properties": { "name": "urn:ogc:def:crs:OGC:1.3:CRS84" } },
"features": [
{ "type": "Feature", "properties": { "OBJECTID": 97, "WETLAND_ID": 97, "WETLAND": 97, "WETLAND_NA": "Kafue Flats", "Shape__Are": 0.60987838492087598, "Shape__Len": 7.1020294603721599 }, "geometry": { "type": "MultiPolygon", "coordinates": [ [ [ [ 26.13706, -15.75308 ], [ 26.14056, -15.74844 ], [ 26.14333, -15.74336 ], [ 26.14657, -15.73828 ], [ 26.15127, -15.73477 ], [ 26.15621, -15.73218 ], [ 26.162121, -15.73095 ], [ 26.167789, -15.72973 ], [ 26.17347, -15.72851 ], [ 26.180099, -15.72796 ], [ 26.180099, -15.72796 ], [ 26.186041, -15.7281 ], [ 26.1922, -15.72825 ], [ 26.19837, -15.72816 ], [ 26.204029, -15.72648 ], [ 26.20994, -15.72502 ], [ 26.21487, -15.72197 ], [ 26.21957, -15.71893 ], [ 26.224501, -15.71542 ], [ 26.229931, -15.71328 ], [ 26.23583, -15.71182 ], [ 26.23583, -15.71182 ], [ 26.241529, -15.71243 ], [ 26.247009, -15.71396 ], [ 26.25251, -15.71709 ], [ 26.25778, -15.72069 ], [ 26.26256, -15.7236 ], [ 26.26829, -15.72558 ], [ 26.273769, -15.72688 ], [ 26.279449, -15.72703 ], [ 26.284889, -15.72534 ], [ 26.29007, -15.72298 ], [ 26.29497, -15.71787 ], [ 26.295679, -15.7174 ], [ 26.299891, -15.71344 ], [ 26.304831, -15.71084 ], [ 26.304831, -15.71084 ], [ 26.31076, -15.71122 ], [ 26.31646, -15.71205 ], [ 26.322399, -15.71243 ], [ 26.32835, -15.71372 ], [ 26.33453, -15.71455 ], [ 26.34021, -15.71424 ], [ 26.346121, -15.71346 ], [ 26.351561, -15.71201 ], [ 26.357229, -15.71032 ], [ 26.36289, -15.70818 ], [ 26.368071, -15.70581 ], [ 26.37299, -15.70207 ], [ 26.377439, -15.69857 ], [ 26.38236, -15.69483 ], [ 26.38681, -15.69087 ], [ 26.392241, -15.68941 ], [ 26.398161, -15.68887 ], [ 26.398161, -15.68887 ], [ 26.404329, -15.68901 ], [ 26.41, -15.68801 ], [ 26.415689, -15.68747 ], [ 26.42111, -15.68555 ], [ 26.426519, -15.68272 ], [ 26.43169, -15.67966 ], [ 26.436859, -15.67707 ], [ 26.44132, -15.67333 ], [ 26.445999, -15.66983 ], [ 26.451401, -15.66676 ], [ 26.45706, -15.66416 ], [ 26.46343, -15.66246 ], [ 26.46911, -15.66169 ], [ 26.474791, -15.66091 ], [ 26.48094, -15.66014 ], [ 26.48686, -15.65959 ], [ 26.49276, -15.65813 ], [ 26.4977, -15.6553 ], [ 26.50264, -15.65271 ], [ 26.508539, -15.65102 ], [ 26.514669, -15.64908 ], [ 26.520571, -15.64716 ], [ 26.52623, -15.64478 ], [ 26.531891, -15.64287 ], [ 26.53825, -15.64116 ], [ 26.54393, -15.63993 ], [ 26.549841, -15.63939 ], [ 26.55575, -15.63838 ], [ 26.56118, -15.63624 ], [ 26.566601, -15.63477 ], [ 26.572269, -15.63331 ], [ 26.57793, -15.6314 ], [ 26.58358, -15.62924 ], [ 26.58901, -15.62709 ], [ 26.59417, -15.6245 ], [ 26.59935, -15.6219 ], [ 26.60428, -15.61884 ], [ 26.607771, -15.61443 ], [ 26.610279, -15.60865 ], [ 26.61256, -15.60289 ], [ 26.613661, -15.59737 ], [ 26.613331, -15.59164 ], [ 26.61157, -15.58594 ], [ 26.60935, -15.5807 ], [ 26.607611, -15.57545 ], [ 26.605631, -15.56998 ], [ 26.60388, -15.56473 ], [ 26.60214, -15.55948 ], [ 26.602289, -15.55398 ], [ 26.60339, -15.54846 ], [ 26.6052, -15.54315 ], [ 26.60866, -15.5376 ], [ 26.612379, -15.53273 ], [ 26.61562, -15.52786 ], [ 26.619089, -15.52277 ], [ 26.62137, -15.51745 ], [ 26.622471, -15.5117 ], [ 26.62261, -15.5062 ], [ 26.622061, -15.5007 ], [ 26.620541, -15.49522 ], [ 26.619499, -15.48927 ], [ 26.619169, -15.48378 ], [ 26.618839, -15.47804 ], [ 26.618521, -15.47254 ], [ 26.618191, -15.46705 ], [ 26.62071, -15.46151 ], [ 26.62348, -15.45642 ], [ 26.62623, -15.45133 ], [ 26.629471, -15.44647 ], [ 26.63319, -15.44205 ], [ 26.63739, -15.43831 ], [ 26.6423, -15.43434 ], [ 26.64747, -15.43151 ], [ 26.653351, -15.42867 ], [ 26.659229, -15.42628 ], [ 26.66465, -15.42482 ], [ 26.670561, -15.42404 ], [ 26.676491, -15.42372 ], [ 26.676491, -15.42372 ], [ 26.68265, -15.42431 ], [ 26.689051, -15.42467 ], [ 26.69569, -15.42502 ], [ 26.701839, -15.42493 ], [ 26.70727, -15.42324 ], [ 26.71195, -15.41972 ], [ 26.717119, -15.41735 ], [ 26.722799, -15.41726 ], [ 26.722799, -15.41726 ], [ 26.728291, -15.4197 ], [ 26.732389, -15.42353 ], [ 26.736019, -15.42806 ], [ 26.74011, -15.43235 ], [ 26.74209, -15.4376 ], [ 26.74313, -15.44309 ], [ 26.743231, -15.44927 ], [ 26.744749, -15.45499 ], [ 26.746031, -15.4607 ], [ 26.74754, -15.46595 ], [ 26.749519, -15.47119 ], [ 26.75174, -15.47643 ], [ 26.75395, -15.48144 ], [ 26.75712, -15.48621 ], [ 26.7612, -15.49004 ], [ 26.765989, -15.49295 ], [ 26.771009, -15.49539 ], [ 26.776951, -15.49667 ], [ 26.782869, -15.49635 ], [ 26.788561, -15.49626 ], [ 26.792999, -15.49275 ], [ 26.793859, -15.487 ], [ 26.79376, -15.4815 ], [ 26.792721, -15.47555 ], [ 26.79096, -15.47008 ], [ 26.78828, -15.4653 ], [ 26.785351, -15.46053 ], [ 26.78219, -15.45554 ], [ 26.77878, -15.45032 ], [ 26.776569, -15.44507 ], [ 26.77434, -15.43938 ], [ 26.772591, -15.43413 ], [ 26.77202, -15.42795 ], [ 26.771219, -15.42246 ], [ 26.77088, -15.41627 ], [ 26.77125, -15.4103 ], [ 26.77693, -15.40998 ], [ 26.77693, -15.40998 ], [ 26.782631, -15.41104 ], [ 26.793341, -15.4143 ], [ 26.79768, -15.41859 ], [ 26.802719, -15.42242 ], [ 26.807541, -15.42692 ], [ 26.81139, -15.43099 ], [ 26.81502, -15.43529 ], [ 26.81864, -15.43958 ], [ 26.82205, -15.44458 ], [ 26.826839, -15.44818 ], [ 26.832319, -15.44969 ], [ 26.83897, -15.4505 ], [ 26.8451, -15.44879 ], [ 26.848101, -15.44416 ], [ 26.84967, -15.43886 ], [ 26.85005, -15.43312 ], [ 26.85018, -15.42738 ], [ 26.854389, -15.42365 ], [ 26.854389, -15.42365 ], [ 26.860571, -15.42469 ], [ 26.864889, -15.42875 ], [ 26.868521, -15.43351 ], [ 26.87146, -15.43874 ], [ 26.874149, -15.44374 ], [ 26.87779, -15.4485 ], [ 26.88118, -15.45325 ], [ 26.884581, -15.45779 ], [ 26.888451, -15.46254 ], [ 26.89278, -15.46614 ], [ 26.89847, -15.46696 ], [ 26.90414, -15.46595 ], [ 26.909069, -15.46335 ], [ 26.91449, -15.46119 ], [ 26.919161, -15.45745 ], [ 26.919161, -15.45745 ], [ 26.92535, -15.45918 ], [ 26.92968, -15.46278 ], [ 26.93379, -15.46707 ], [ 26.93766, -15.47182 ], [ 26.940821, -15.47659 ], [ 26.94445, -15.48088 ], [ 26.94902, -15.48517 ], [ 26.9547, -15.48461 ], [ 26.958651, -15.48042 ], [ 26.961411, -15.47556 ], [ 26.96274, -15.47026 ], [ 26.96454, -15.46473 ], [ 26.967541, -15.45986 ], [ 26.97295, -15.45771 ], [ 26.97295, -15.45771 ], [ 26.97887, -15.45784 ], [ 26.983891, -15.46028 ], [ 26.988911, -15.46272 ], [ 26.993469, -15.46608 ], [ 26.999649, -15.46713 ], [ 27.00482, -15.46475 ], [ 27.009489, -15.46077 ], [ 27.013691, -15.45703 ], [ 27.01907, -15.45327 ], [ 27.024469, -15.45042 ], [ 27.02964, -15.44759 ], [ 27.035049, -15.44589 ], [ 27.04071, -15.44442 ], [ 27.046619, -15.44386 ], [ 27.05278, -15.44376 ], [ 27.05278, -15.44376 ], [ 27.05872, -15.4448 ], [ 27.06443, -15.44562 ], [ 27.070129, -15.44668 ], [ 27.07583, -15.4475 ], [ 27.081539, -15.449 ], [ 27.08749, -15.45005 ], [ 27.09366, -15.45109 ], [ 27.09935, -15.45122 ], [ 27.10527, -15.45112 ], [ 27.10527, -15.45112 ], [ 27.111429, -15.45124 ], [ 27.118071, -15.45159 ], [ 27.124479, -15.45217 ], [ 27.130899, -15.45366 ], [ 27.13661, -15.45517 ], [ 27.14209, -15.45645 ], [ 27.14781, -15.45796 ], [ 27.153761, -15.46015 ], [ 27.159731, -15.46212 ], [ 27.16544, -15.46385 ], [ 27.17141, -15.46581 ], [ 27.176889, -15.46778 ], [ 27.182381, -15.47021 ], [ 27.18787, -15.47263 ], [ 27.1936, -15.47505 ], [ 27.1984, -15.47818 ], [ 27.203659, -15.48107 ], [ 27.20966, -15.48487 ], [ 27.214451, -15.488 ], [ 27.21928, -15.49227 ], [ 27.224319, -15.49608 ], [ 27.22912, -15.49966 ], [ 27.23394, -15.50348 ], [ 27.238279, -15.50776 ], [ 27.24308, -15.51135 ], [ 27.247641, -15.51447 ], [ 27.25198, -15.51853 ], [ 27.25609, -15.52258 ], [ 27.261351, -15.52524 ], [ 27.26593, -15.52906 ], [ 27.2712, -15.53241 ], [ 27.27647, -15.53553 ], [ 27.2822, -15.53795 ], [ 27.28816, -15.53944 ], [ 27.29385, -15.54004 ], [ 27.299801, -15.54107 ], [ 27.30574, -15.54166 ], [ 27.311899, -15.54178 ], [ 27.317829, -15.5419 ], [ 27.32373, -15.54065 ], [ 27.328659, -15.53803 ], [ 27.33285, -15.53406 ], [ 27.33489, -15.52898 ], [ 27.335011, -15.52324 ], [ 27.331381, -15.51896 ], [ 27.326349, -15.51629 ], [ 27.321329, -15.51386 ], [ 27.31559, -15.51121 ], [ 27.31035, -15.50924 ], [ 27.30509, -15.50727 ], [ 27.30006, -15.50438 ], [ 27.29501, -15.50011 ], [ 27.29302, -15.49487 ], [ 27.293131, -15.48868 ], [ 27.295891, -15.48358 ], [ 27.299351, -15.47893 ], [ 27.304741, -15.47563 ], [ 27.31041, -15.47437 ], [ 27.31629, -15.47244 ], [ 27.32243, -15.47095 ], [ 27.328329, -15.47016 ], [ 27.334709, -15.46913 ], [ 27.34062, -15.46834 ], [ 27.34062, -15.46834 ], [ 27.34655, -15.46869 ], [ 27.352249, -15.4695 ], [ 27.358669, -15.47031 ], [ 27.364599, -15.47112 ], [ 27.370541, -15.4717 ], [ 27.376221, -15.47137 ], [ 27.381901, -15.4708 ], [ 27.388029, -15.46977 ], [ 27.39419, -15.46921 ], [ 27.40007, -15.46727 ], [ 27.40571, -15.46464 ], [ 27.41013, -15.46066 ], [ 27.414789, -15.45668 ], [ 27.41972, -15.4536 ], [ 27.425131, -15.4519 ], [ 27.43055, -15.4502 ], [ 27.436211, -15.44895 ], [ 27.442101, -15.44746 ], [ 27.448231, -15.44575 ], [ 27.453911, -15.44541 ], [ 27.453911, -15.44541 ], [ 27.4596, -15.44553 ], [ 27.46553, -15.44612 ], [ 27.47167, -15.44532 ], [ 27.477579, -15.44452 ], [ 27.477579, -15.44452 ], [ 27.483521, -15.44533 ], [ 27.489679, -15.44499 ], [ 27.495569, -15.4435 ], [ 27.501221, -15.44156 ], [ 27.50614, -15.43895 ], [ 27.511049, -15.43542 ], [ 27.514999, -15.43145 ], [ 27.51943, -15.42769 ], [ 27.52457, -15.42416 ], [ 27.52998, -15.42222 ], [ 27.535629, -15.42028 ], [ 27.541519, -15.41856 ], [ 27.54718, -15.41708 ], [ 27.553089, -15.41629 ], [ 27.55899, -15.41526 ], [ 27.55899, -15.41526 ], [ 27.56492, -15.41584 ], [ 27.57086, -15.41641 ], [ 27.57704, -15.41744 ], [ 27.583469, -15.41938 ], [ 27.58942, -15.42134 ], [ 27.595619, -15.42306 ], [ 27.60158, -15.42455 ], [ 27.60754, -15.42697 ], [ 27.61327, -15.42915 ], [ 27.618299, -15.43158 ], [ 27.623791, -15.43377 ], [ 27.62882, -15.43666 ], [ 27.633619, -15.43954 ], [ 27.638651, -15.44243 ], [ 27.644171, -15.44622 ], [ 27.64851, -15.45004 ], [ 27.65262, -15.45409 ], [ 27.65789, -15.45697 ], [ 27.66338, -15.45894 ], [ 27.66864, -15.46112 ], [ 27.673429, -15.46402 ], [ 27.678471, -15.46713 ], [ 27.6835, -15.47002 ], [ 27.688089, -15.47406 ], [ 27.693621, -15.47808 ], [ 27.698919, -15.48211 ], [ 27.704201, -15.48567 ], [ 27.709709, -15.48878 ], [ 27.715231, -15.49211 ], [ 27.720501, -15.49477 ], [ 27.726219, -15.49649 ], [ 27.73193, -15.49776 ], [ 27.737869, -15.49856 ], [ 27.743361, -15.50006 ], [ 27.74929, -15.50041 ], [ 27.754971, -15.50052 ], [ 27.76066, -15.50018 ], [ 27.766331, -15.49961 ], [ 27.772011, -15.4995 ], [ 27.772011, -15.4995 ], [ 27.77821, -15.50121 ], [ 27.783701, -15.50295 ], [ 27.789431, -15.50535 ], [ 27.795179, -15.50799 ], [ 27.80069, -15.5111 ], [ 27.80619, -15.51374 ], [ 27.81077, -15.51687 ], [ 27.81604, -15.51998 ], [ 27.821791, -15.52307 ], [ 27.82682, -15.52549 ], [ 27.833031, -15.52767 ], [ 27.838539, -15.53077 ], [ 27.844061, -15.53387 ], [ 27.8491, -15.53698 ], [ 27.854601, -15.53985 ], [ 27.85964, -15.54274 ], [ 27.86537, -15.54446 ], [ 27.871071, -15.54504 ], [ 27.876751, -15.5447 ], [ 27.88242, -15.54412 ], [ 27.88905, -15.54354 ], [ 27.89473, -15.54319 ], [ 27.90089, -15.54307 ], [ 27.90089, -15.54307 ], [ 27.90682, -15.54318 ], [ 27.91275, -15.54329 ], [ 27.91893, -15.54431 ], [ 27.925369, -15.54625 ], [ 27.931089, -15.54797 ], [ 27.9366, -15.55061 ], [ 27.941641, -15.55349 ], [ 27.94622, -15.5573 ], [ 27.950359, -15.56226 ], [ 27.953541, -15.56724 ], [ 27.956261, -15.57247 ], [ 27.958731, -15.57746 ], [ 27.960991, -15.58292 ], [ 27.961349, -15.58865 ], [ 27.961479, -15.5946 ], [ 27.961349, -15.60011 ], [ 27.962891, -15.60604 ], [ 27.965139, -15.61104 ], [ 27.96833, -15.61602 ], [ 27.972679, -15.61983 ], [ 27.97794, -15.62225 ], [ 27.9848, -15.62188 ], [ 27.989981, -15.61971 ], [ 27.995131, -15.61709 ], [ 27.999081, -15.61288 ], [ 27.99979, -15.61287 ], [ 28.00655, -15.60769 ], [ 28.01001, -15.60303 ], [ 28.014919, -15.59995 ], [ 28.014919, -15.59995 ], [ 28.02063, -15.60075 ], [ 28.0259, -15.6034 ], [ 28.02932, -15.60814 ], [ 28.03204, -15.6129 ], [ 28.03451, -15.61789 ], [ 28.03558, -15.62338 ], [ 28.03713, -15.62931 ], [ 28.03677, -15.63482 ], [ 28.034981, -15.64013 ], [ 28.03178, -15.64524 ], [ 28.02759, -15.64922 ], [ 28.023661, -15.65412 ], [ 28.019489, -15.6581 ], [ 28.01675, -15.66297 ], [ 28.01473, -15.66829 ], [ 28.015551, -15.67377 ], [ 28.01733, -15.67947 ], [ 28.020041, -15.68446 ], [ 28.022551, -15.6906 ], [ 28.024811, -15.69628 ], [ 28.02705, -15.70151 ], [ 28.03117, -15.70556 ], [ 28.03529, -15.7096 ], [ 28.040119, -15.71363 ], [ 28.04517, -15.71673 ], [ 28.0502, -15.71939 ], [ 28.055479, -15.72203 ], [ 28.060749, -15.72491 ], [ 28.066031, -15.72755 ], [ 28.071791, -15.73041 ], [ 28.078011, -15.73327 ], [ 28.083059, -15.73614 ], [ 28.0881, -15.73879 ], [ 28.09313, -15.74144 ], [ 28.099119, -15.74429 ], [ 28.104639, -15.7467 ], [ 28.11014, -15.74911 ], [ 28.11565, -15.75152 ], [ 28.12117, -15.75439 ], [ 28.12598, -15.75772 ], [ 28.13081, -15.76153 ], [ 28.13562, -15.76441 ], [ 28.140881, -15.76659 ], [ 28.146391, -15.769 ], [ 28.151661, -15.77096 ], [ 28.157391, -15.77313 ], [ 28.16337, -15.77506 ], [ 28.16818, -15.7784 ], [ 28.16304, -15.78149 ], [ 28.15686, -15.78094 ], [ 28.15115, -15.78036 ], [ 28.14566, -15.77887 ], [ 28.1397, -15.77739 ], [ 28.13373, -15.77591 ], [ 28.128229, -15.77373 ], [ 28.12274, -15.77224 ], [ 28.117029, -15.77098 ], [ 28.111521, -15.7688 ], [ 28.10577, -15.7664 ], [ 28.09981, -15.76492 ], [ 28.09407, -15.76297 ], [ 28.089729, -15.75939 ], [ 28.08585, -15.75534 ], [ 28.080549, -15.75201 ], [ 28.074829, -15.75053 ], [ 28.068871, -15.74904 ], [ 28.062929, -15.7487 ], [ 28.062929, -15.7487 ], [ 28.056789, -15.74997 ], [ 28.051081, -15.74917 ], [ 28.04604, -15.74653 ], [ 28.04031, -15.74481 ], [ 28.035049, -15.74262 ], [ 28.03001, -15.73998 ], [ 28.03001, -15.73998 ], [ 28.024321, -15.74009 ], [ 28.018419, -15.74136 ], [ 28.013, -15.74307 ], [ 28.00733, -15.74456 ], [ 28.00193, -15.74719 ], [ 28.00123, -15.74743 ], [ 27.997049, -15.75142 ], [ 27.99213, -15.75472 ], [ 27.987711, -15.75826 ], [ 27.984011, -15.76314 ], [ 27.98007, -15.76735 ], [ 27.975889, -15.77157 ], [ 27.97024, -15.77374 ], [ 27.965071, -15.77591 ], [ 27.95944, -15.77854 ], [ 27.953541, -15.78049 ], [ 27.947639, -15.78176 ], [ 27.941719, -15.78256 ], [ 27.936041, -15.78337 ], [ 27.929661, -15.78395 ], [ 27.92396, -15.78407 ], [ 27.91823, -15.78234 ], [ 27.912729, -15.78016 ], [ 27.907681, -15.77705 ], [ 27.902399, -15.77418 ], [ 27.897369, -15.77152 ], [ 27.891859, -15.76934 ], [ 27.886129, -15.76739 ], [ 27.879709, -15.7666 ], [ 27.879709, -15.7666 ], [ 27.874029, -15.76695 ], [ 27.868349, -15.76751 ], [ 27.8624, -15.76695 ], [ 27.856461, -15.76637 ], [ 27.85051, -15.76511 ], [ 27.84432, -15.76432 ], [ 27.838381, -15.76375 ], [ 27.838381, -15.76375 ], [ 27.83198, -15.76433 ], [ 27.826309, -15.76513 ], [ 27.82015, -15.76548 ], [ 27.814489, -15.7672 ], [ 27.80932, -15.76959 ], [ 27.804159, -15.77198 ], [ 27.798229, -15.77256 ], [ 27.79232, -15.77336 ], [ 27.78664, -15.77393 ], [ 27.78051, -15.77588 ], [ 27.77463, -15.77806 ], [ 27.769699, -15.78091 ], [ 27.76552, -15.78511 ], [ 27.76009, -15.7866 ], [ 27.754669, -15.78808 ], [ 27.749241, -15.78978 ], [ 27.74432, -15.7924 ], [ 27.738911, -15.7948 ], [ 27.7335, -15.79719 ], [ 27.7276, -15.79891 ], [ 27.721701, -15.80018 ], [ 27.715811, -15.80212 ], [ 27.71064, -15.80474 ], [ 27.705219, -15.80668 ], [ 27.69981, -15.80885 ], [ 27.693661, -15.80966 ], [ 27.687981, -15.81022 ], [ 27.68203, -15.80965 ], [ 27.676319, -15.80838 ], [ 27.670349, -15.80689 ], [ 27.66415, -15.80517 ], [ 27.65819, -15.80368 ], [ 27.6527, -15.80218 ], [ 27.6472, -15.79999 ], [ 27.641939, -15.79757 ], [ 27.6362, -15.79562 ], [ 27.630939, -15.79342 ], [ 27.625681, -15.79146 ], [ 27.620649, -15.7888 ], [ 27.61562, -15.78637 ], [ 27.61058, -15.78349 ], [ 27.605061, -15.78039 ], [ 27.599791, -15.77773 ], [ 27.59404, -15.77486 ], [ 27.58831, -15.77313 ], [ 27.582581, -15.77095 ], [ 27.577089, -15.76944 ], [ 27.571369, -15.76772 ], [ 27.565189, -15.76715 ], [ 27.565189, -15.76715 ], [ 27.559271, -15.76794 ], [ 27.553619, -15.76988 ], [ 27.548441, -15.77227 ], [ 27.54328, -15.77512 ], [ 27.539579, -15.77977 ], [ 27.537069, -15.78487 ], [ 27.534081, -15.78973 ], [ 27.52939, -15.7928 ], [ 27.52397, -15.79473 ], [ 27.518551, -15.79621 ], [ 27.51239, -15.79701 ], [ 27.50626, -15.79873 ], [ 27.50083, -15.8002 ], [ 27.495661, -15.80237 ], [ 27.49048, -15.80499 ], [ 27.48653, -15.80895 ], [ 27.48328, -15.81268 ], [ 27.478901, -15.81918 ], [ 27.4771, -15.82449 ], [ 27.47435, -15.82935 ], [ 27.47303, -15.83488 ], [ 27.47196, -15.84085 ], [ 27.47089, -15.84661 ], [ 27.46912, -15.85329 ], [ 27.467091, -15.85883 ], [ 27.4653, -15.86436 ], [ 27.46208, -15.86969 ], [ 27.458851, -15.87433 ], [ 27.454411, -15.87809 ], [ 27.44997, -15.8816 ], [ 27.445049, -15.88467 ], [ 27.43964, -15.8873 ], [ 27.43446, -15.88945 ], [ 27.428551, -15.8907 ], [ 27.42218, -15.89265 ], [ 27.416281, -15.89436 ], [ 27.409901, -15.89563 ], [ 27.404221, -15.89665 ], [ 27.398069, -15.89768 ], [ 27.39216, -15.89893 ], [ 27.38673, -15.9004 ], [ 27.38059, -15.90234 ], [ 27.375179, -15.90474 ], [ 27.37026, -15.90827 ], [ 27.365601, -15.91247 ], [ 27.36165, -15.9169 ], [ 27.357929, -15.92132 ], [ 27.353741, -15.92575 ], [ 27.34955, -15.92972 ], [ 27.344641, -15.93347 ], [ 27.33946, -15.93609 ], [ 27.333811, -15.93872 ], [ 27.32839, -15.94087 ], [ 27.32225, -15.94213 ], [ 27.31682, -15.94383 ], [ 27.310659, -15.9444 ], [ 27.304729, -15.9445 ], [ 27.299049, -15.94552 ], [ 27.29335, -15.94539 ], [ 27.29335, -15.94539 ], [ 27.287439, -15.94664 ], [ 27.282009, -15.94834 ], [ 27.276609, -15.95119 ], [ 27.272421, -15.95585 ], [ 27.269899, -15.96071 ], [ 27.26786, -15.96578 ], [ 27.266291, -15.97108 ], [ 27.264259, -15.97639 ], [ 27.26247, -15.98215 ], [ 27.259939, -15.98701 ], [ 27.25672, -15.9921 ], [ 27.252991, -15.9963 ], [ 27.24918, -16.00012 ], [ 27.254009, -16.003851 ], [ 27.249359, -16.00717 ], [ 27.243971, -16.009609 ], [ 27.239321, -16.012711 ], [ 27.233959, -16.01605 ], [ 27.228849, -16.020081 ], [ 27.22448, -16.024549 ], [ 27.22154, -16.02989 ], [ 27.21884, -16.035009 ], [ 27.216841, -16.0401 ], [ 27.214609, -16.0452 ], [ 27.21143, -16.04987 ], [ 27.207279, -16.0541 ], [ 27.20237, -16.056749 ], [ 27.196739, -16.05895 ], [ 27.190821, -16.059561 ], [ 27.18512, -16.059259 ], [ 27.179621, -16.05756 ], [ 27.17433, -16.054951 ], [ 27.170191, -16.05093 ], [ 27.170031, -16.045441 ], [ 27.170589, -16.0397 ], [ 27.17042, -16.03352 ], [ 27.168369, -16.028299 ], [ 27.16242, -16.02754 ], [ 27.16242, -16.02754 ], [ 27.156759, -16.02883 ], [ 27.151369, -16.03126 ], [ 27.146971, -16.034809 ], [ 27.142559, -16.038361 ], [ 27.137671, -16.041691 ], [ 27.13279, -16.04525 ], [ 27.127211, -16.04929 ], [ 27.122299, -16.05217 ], [ 27.11689, -16.05368 ], [ 27.110991, -16.05475 ], [ 27.105049, -16.05444 ], [ 27.09956, -16.05298 ], [ 27.09474, -16.050119 ], [ 27.09037, -16.04656 ], [ 27.085991, -16.04233 ], [ 27.0823, -16.03784 ], [ 27.0798, -16.03286 ], [ 27.07847, -16.027399 ], [ 27.077129, -16.021709 ], [ 27.075081, -16.01626 ], [ 27.0742, -16.010099 ], [ 27.07239, -16.004181 ], [ 27.04221, -15.99832 ], [ 27.04283, -15.99281 ], [ 27.042721, -15.98707 ], [ 27.042629, -15.98157 ], [ 27.04254, -15.97608 ], [ 27.044331, -15.97032 ], [ 27.04804, -15.96544 ], [ 27.05175, -15.96057 ], [ 27.055229, -15.95569 ], [ 27.05846, -15.95082 ], [ 27.06122, -15.94551 ], [ 27.06349, -15.93997 ], [ 27.064341, -15.934 ], [ 27.06423, -15.92827 ], [ 27.06366, -15.92277 ], [ 27.062851, -15.91683 ], [ 27.06226, -15.91111 ], [ 27.06192, -15.90493 ], [ 27.06348, -15.89962 ], [ 27.06601, -15.89477 ], [ 27.068529, -15.88969 ], [ 27.071289, -15.88483 ], [ 27.073811, -15.87997 ], [ 27.075859, -15.87489 ], [ 27.077181, -15.86914 ], [ 27.076611, -15.86342 ], [ 27.07485, -15.85818 ], [ 27.070959, -15.85297 ], [ 27.06525, -15.85215 ], [ 27.05953, -15.85087 ], [ 27.05336, -15.85074 ], [ 27.05336, -15.85074 ], [ 27.04744, -15.85107 ], [ 27.0413, -15.85255 ], [ 27.035629, -15.85425 ], [ 27.029449, -15.85366 ], [ 27.023729, -15.85238 ], [ 27.01753, -15.85043 ], [ 27.01158, -15.84961 ], [ 27.01158, -15.84961 ], [ 27.00565, -15.84971 ], [ 26.99976, -15.85165 ], [ 26.994341, -15.85425 ], [ 26.98941, -15.85732 ], [ 26.98448, -15.85991 ], [ 26.97979, -15.86344 ], [ 26.97534, -15.86671 ], [ 26.969681, -15.86865 ], [ 26.96426, -15.8708 ], [ 26.958839, -15.87295 ], [ 26.953659, -15.8751 ], [ 26.94824, -15.87748 ], [ 26.94276, -15.87619 ], [ 26.937031, -15.87423 ], [ 26.93129, -15.87158 ], [ 26.926491, -15.86867 ], [ 26.922159, -15.86507 ], [ 26.91687, -15.86104 ], [ 26.91206, -15.85722 ], [ 26.90818, -15.85292 ], [ 26.904091, -15.84886 ], [ 26.899981, -15.8448 ], [ 26.89588, -15.84051 ], [ 26.8913, -15.83646 ], [ 26.88673, -15.83311 ], [ 26.88216, -15.82928 ], [ 26.87829, -15.82499 ], [ 26.873949, -15.82093 ], [ 26.87126, -15.81616 ], [ 26.86927, -15.81069 ], [ 26.868219, -15.80498 ], [ 26.868361, -15.79925 ], [ 26.87257, -15.79551 ], [ 26.878229, -15.79381 ], [ 26.881241, -15.78917 ], [ 26.88138, -15.78368 ], [ 26.88056, -15.7775 ], [ 26.877859, -15.77204 ], [ 26.873989, -15.76775 ], [ 26.870819, -15.76252 ], [ 26.867889, -15.75776 ], [ 26.86425, -15.753 ], [ 26.860609, -15.74824 ], [ 26.85557, -15.74466 ], [ 26.85054, -15.74152 ], [ 26.845739, -15.73863 ], [ 26.84025, -15.73643 ], [ 26.834511, -15.73376 ], [ 26.829729, -15.73086 ], [ 26.82493, -15.72796 ], [ 26.819889, -15.72437 ], [ 26.81461, -15.72055 ], [ 26.809561, -15.71674 ], [ 26.8043, -15.71407 ], [ 26.799259, -15.71025 ], [ 26.79493, -15.70666 ], [ 26.79034, -15.70214 ], [ 26.790489, -15.69641 ], [ 26.79133, -15.69021 ], [ 26.79266, -15.68491 ], [ 26.79163, -15.67943 ], [ 26.78661, -15.67698 ], [ 26.78661, -15.67698 ], [ 26.78092, -15.67753 ], [ 26.775749, -15.68014 ], [ 26.770821, -15.68342 ], [ 26.766859, -15.68738 ], [ 26.76314, -15.69157 ], [ 26.75942, -15.69575 ], [ 26.75499, -15.70064 ], [ 26.75246, -15.7055 ], [ 26.748989, -15.71036 ], [ 26.746941, -15.71567 ], [ 26.74655, -15.72118 ], [ 26.747601, -15.72712 ], [ 26.749359, -15.73283 ], [ 26.750401, -15.73854 ], [ 26.75215, -15.74379 ], [ 26.75366, -15.74904 ], [ 26.75564, -15.75451 ], [ 26.757389, -15.75975 ], [ 26.75938, -15.76522 ], [ 26.7609, -15.7707 ], [ 26.76194, -15.77619 ], [ 26.762739, -15.78191 ], [ 26.76141, -15.7872 ], [ 26.75745, -15.79139 ], [ 26.75178, -15.79331 ], [ 26.74612, -15.79501 ], [ 26.74044, -15.79602 ], [ 26.73477, -15.79702 ], [ 26.73381, -15.79704 ], [ 26.722679, -15.79745 ], [ 26.716249, -15.79639 ], [ 26.716249, -15.79639 ], [ 26.71056, -15.79649 ], [ 26.704889, -15.79749 ], [ 26.698959, -15.79805 ], [ 26.692801, -15.79837 ], [ 26.68709, -15.79731 ], [ 26.68252, -15.79371 ], [ 26.679371, -15.78917 ], [ 26.67762, -15.78393 ], [ 26.676571, -15.77821 ], [ 26.676491, -15.77271 ], [ 26.67758, -15.76696 ], [ 26.679399, -15.76167 ], [ 26.680731, -15.75638 ], [ 26.68111, -15.75086 ], [ 26.681021, -15.74536 ], [ 26.679979, -15.73988 ], [ 26.67753, -15.73487 ], [ 26.672741, -15.73174 ], [ 26.667021, -15.73022 ], [ 26.661301, -15.72871 ], [ 26.655121, -15.72788 ], [ 26.655121, -15.72788 ], [ 26.64872, -15.72798 ], [ 26.642811, -15.72876 ], [ 26.636881, -15.72908 ], [ 26.631201, -15.72986 ], [ 26.625771, -15.73154 ], [ 26.6206, -15.73415 ], [ 26.615431, -15.73697 ], [ 26.61121, -15.74071 ], [ 26.60581, -15.74332 ], [ 26.60063, -15.74614 ], [ 26.595449, -15.74828 ], [ 26.589781, -15.74998 ], [ 26.58411, -15.75121 ], [ 26.577971, -15.75268 ], [ 26.5723, -15.75437 ], [ 26.566151, -15.75538 ], [ 26.56023, -15.75616 ], [ 26.554319, -15.75671 ], [ 26.548389, -15.75703 ], [ 26.54269, -15.75642 ], [ 26.54269, -15.75642 ], [ 26.53676, -15.75652 ], [ 26.531071, -15.75659 ], [ 26.52466, -15.75646 ], [ 26.518709, -15.75518 ], [ 26.512541, -15.75481 ], [ 26.512541, -15.75481 ], [ 26.50638, -15.75537 ], [ 26.50021, -15.75477 ], [ 26.494499, -15.75393 ], [ 26.488779, -15.75242 ], [ 26.48307, -15.75089 ], [ 26.477119, -15.74938 ], [ 26.47093, -15.74787 ], [ 26.464979, -15.74658 ], [ 26.45904, -15.74598 ], [ 26.453341, -15.74514 ], [ 26.44692, -15.74479 ], [ 26.44692, -15.74479 ], [ 26.44076, -15.74487 ], [ 26.434839, -15.74542 ], [ 26.42894, -15.74757 ], [ 26.423759, -15.74971 ], [ 26.41786, -15.75209 ], [ 26.41292, -15.75468 ], [ 26.407249, -15.75614 ], [ 26.402559, -15.75942 ], [ 26.397619, -15.76201 ], [ 26.394369, -15.76664 ], [ 26.3916, -15.7715 ], [ 26.389059, -15.77658 ], [ 26.38748, -15.78187 ], [ 26.385679, -15.7874 ], [ 26.384569, -15.79315 ], [ 26.384899, -15.79865 ], [ 26.38538, -15.7991 ], [ 26.32432, -15.80892 ], [ 26.31884, -15.80716 ], [ 26.313129, -15.80586 ], [ 26.30743, -15.80572 ], [ 26.30743, -15.80572 ], [ 26.301741, -15.80603 ], [ 26.29607, -15.80726 ], [ 26.29088, -15.8094 ], [ 26.2857, -15.81222 ], [ 26.28076, -15.81504 ], [ 26.27487, -15.81742 ], [ 26.269461, -15.82093 ], [ 26.264059, -15.82398 ], [ 26.258881, -15.82727 ], [ 26.25371, -15.83032 ], [ 26.248289, -15.83292 ], [ 26.24263, -15.83529 ], [ 26.23745, -15.83789 ], [ 26.232019, -15.84002 ], [ 26.226839, -15.84216 ], [ 26.22142, -15.84498 ], [ 26.216471, -15.84758 ], [ 26.2113, -15.85063 ], [ 26.20685, -15.85458 ], [ 26.20311, -15.85876 ], [ 26.199381, -15.86294 ], [ 26.19589, -15.86803 ], [ 26.19265, -15.87312 ], [ 26.189871, -15.87843 ], [ 26.18734, -15.8835 ], [ 26.18457, -15.88928 ], [ 26.183229, -15.89525 ], [ 26.1819, -15.90101 ], [ 26.181271, -15.90651 ], [ 26.17992, -15.91226 ], [ 26.1793, -15.91823 ], [ 26.180321, -15.92371 ], [ 26.18301, -15.92872 ], [ 26.18569, -15.9335 ], [ 26.18766, -15.93874 ], [ 26.18988, -15.94444 ], [ 26.193741, -15.94897 ], [ 26.197611, -15.95305 ], [ 26.202391, -15.95596 ], [ 26.20672, -15.95957 ], [ 26.211519, -15.96339 ], [ 26.21608, -15.96677 ], [ 26.221821, -15.96944 ], [ 26.226851, -15.97235 ], [ 26.23163, -15.97526 ], [ 26.23666, -15.97771 ], [ 26.24169, -15.98085 ], [ 26.246719, -15.98376 ], [ 26.250811, -15.98828 ], [ 26.2528, -15.99399 ], [ 26.25312, -15.99948 ], [ 26.25288, -15.99948 ], [ 26.25288, -15.99948 ], [ 26.24868, -16.00412 ], [ 26.24474, -16.00856 ], [ 26.240339, -16.013229 ], [ 26.23736, -16.01787 ], [ 26.23415, -16.023199 ], [ 26.23119, -16.028299 ], [ 26.228701, -16.033859 ], [ 26.225719, -16.03895 ], [ 26.222019, -16.04315 ], [ 26.218081, -16.047359 ], [ 26.213659, -16.051109 ], [ 26.208481, -16.05328 ], [ 26.2026, -16.05546 ], [ 26.196939, -16.056721 ], [ 26.1908, -16.05776 ], [ 26.184641, -16.058109 ], [ 26.177759, -16.05802 ], [ 26.177759, -16.05802 ], [ 26.17207, -16.05814 ], [ 26.16614, -16.05826 ], [ 26.159981, -16.05838 ], [ 26.153839, -16.05965 ], [ 26.14819, -16.06159 ], [ 26.143761, -16.065571 ], [ 26.140551, -16.07045 ], [ 26.138041, -16.07531 ], [ 26.13578, -16.0804 ], [ 26.13163, -16.085751 ], [ 26.12746, -16.09087 ], [ 26.122101, -16.09487 ], [ 26.1164, -16.09498 ], [ 26.110689, -16.094179 ], [ 26.105419, -16.091761 ], [ 26.100599, -16.08819 ], [ 26.096239, -16.08415 ], [ 26.092581, -16.07896 ], [ 26.090799, -16.073271 ], [ 26.09211, -16.06797 ], [ 26.095091, -16.063101 ], [ 26.09831, -16.05801 ], [ 26.10153, -16.05336 ], [ 26.10475, -16.048479 ], [ 26.107719, -16.043381 ], [ 26.10903, -16.038099 ], [ 26.108681, -16.032141 ], [ 26.107599, -16.02667 ], [ 26.1056, -16.021441 ], [ 26.104521, -16.01528 ], [ 26.10417, -16.00979 ], [ 26.105471, -16.00404 ], [ 26.110451, -16.000071 ], [ 26.11013, -15.99435 ], [ 26.110531, -15.98861 ], [ 26.11187, -15.98309 ], [ 26.11274, -15.97758 ], [ 26.11314, -15.97207 ], [ 26.114491, -15.96656 ], [ 26.116541, -15.96126 ], [ 26.11932, -15.95573 ], [ 26.12162, -15.95065 ], [ 26.12344, -15.94535 ], [ 26.12431, -15.93984 ], [ 26.12422, -15.93388 ], [ 26.122721, -15.92863 ], [ 26.119801, -15.92363 ], [ 26.11618, -15.9191 ], [ 26.112329, -15.91502 ], [ 26.107531, -15.91142 ], [ 26.10181, -15.90967 ], [ 26.095631, -15.90883 ], [ 26.095631, -15.90883 ], [ 26.089701, -15.90913 ], [ 26.084, -15.90875 ], [ 26.07852, -15.90746 ], [ 26.073971, -15.90407 ], [ 26.07246, -15.8986 ], [ 26.070959, -15.89335 ], [ 26.06781, -15.88857 ], [ 26.062099, -15.88704 ], [ 26.062099, -15.88704 ], [ 26.056419, -15.8885 ], [ 26.05341, -15.89358 ], [ 26.05135, -15.89934 ], [ 26.049299, -15.90463 ], [ 26.04604, -15.90927 ], [ 26.042311, -15.91412 ], [ 26.038099, -15.91831 ], [ 26.03389, -15.92295 ], [ 26.02944, -15.92736 ], [ 26.025, -15.93201 ], [ 26.020531, -15.93527 ], [ 26.01511, -15.93786 ], [ 26.010651, -15.94182 ], [ 26.00667, -15.94576 ], [ 26.00246, -15.94972 ], [ 25.997999, -15.95321 ], [ 25.99305, -15.95672 ], [ 25.987869, -15.95931 ], [ 25.98366, -15.96326 ], [ 25.98016, -15.96812 ], [ 25.97714, -15.97274 ], [ 25.97508, -15.9785 ], [ 25.973261, -15.98402 ], [ 25.972151, -15.98977 ], [ 25.971991, -15.9955 ], [ 25.9718, -15.99871 ], [ 25.9701, -16.00716 ], [ 25.969271, -16.012671 ], [ 25.967251, -16.01844 ], [ 25.96426, -16.023081 ], [ 25.96032, -16.0275 ], [ 25.956129, -16.03171 ], [ 25.9517, -16.035681 ], [ 25.947519, -16.039419 ], [ 25.942619, -16.04365 ], [ 25.9394, -16.04851 ], [ 25.936411, -16.053379 ], [ 25.932699, -16.05757 ], [ 25.92802, -16.06064 ], [ 25.922541, -16.059361 ], [ 25.91684, -16.05924 ], [ 25.91297, -16.055189 ], [ 25.91144, -16.04995 ], [ 25.911329, -16.04423 ], [ 25.911921, -16.03826 ], [ 25.91419, -16.03318 ], [ 25.916929, -16.02763 ], [ 25.92111, -16.02343 ], [ 25.92506, -16.01923 ], [ 25.929251, -16.015261 ], [ 25.93103, -16.00996 ], [ 25.930691, -16.004471 ], [ 25.944031, -15.99884 ], [ 25.944229, -15.99632 ], [ 25.944151, -15.99059 ], [ 25.94525, -15.98416 ], [ 25.94565, -15.97865 ], [ 25.944851, -15.97247 ], [ 25.945009, -15.96697 ], [ 25.9478, -15.96212 ], [ 25.950821, -15.95727 ], [ 25.9543, -15.95195 ], [ 25.956369, -15.94643 ], [ 25.95558, -15.94071 ], [ 25.955021, -15.93475 ], [ 25.953291, -15.92928 ], [ 25.9506, -15.92404 ], [ 25.946039, -15.92044 ], [ 25.94313, -15.91566 ], [ 25.942101, -15.91017 ], [ 25.942511, -15.90467 ], [ 25.94552, -15.90004 ], [ 25.95046, -15.89654 ], [ 25.956381, -15.89486 ], [ 25.962299, -15.89409 ], [ 25.962299, -15.89409 ], [ 25.968229, -15.8947 ], [ 25.974171, -15.89509 ], [ 25.980129, -15.89638 ], [ 25.986059, -15.89699 ], [ 25.992479, -15.89782 ], [ 26.002871, -15.89379 ], [ 26.00428, -15.89331 ], [ 26.009979, -15.89278 ], [ 26.015671, -15.8927 ], [ 26.021601, -15.89262 ], [ 26.02775, -15.89094 ], [ 26.033409, -15.88835 ], [ 26.03883, -15.88621 ], [ 26.04377, -15.88339 ], [ 26.049681, -15.88148 ], [ 26.055099, -15.87865 ], [ 26.05455, -15.87317 ], [ 26.04952, -15.86979 ], [ 26.04381, -15.86849 ], [ 26.04381, -15.86849 ], [ 26.037399, -15.86858 ], [ 26.031469, -15.8682 ], [ 26.02553, -15.86782 ], [ 26.0205, -15.86445 ], [ 26.016411, -15.86038 ], [ 26.014429, -15.85513 ], [ 26.018169, -15.85072 ], [ 26.02191, -15.84655 ], [ 26.026369, -15.84328 ], [ 26.031561, -15.84069 ], [ 26.037239, -15.83992 ], [ 26.042919, -15.83893 ], [ 26.04834, -15.83703 ], [ 26.05304, -15.83376 ], [ 26.053921, -15.82824 ], [ 26.0536, -15.82252 ], [ 26.053761, -15.81678 ], [ 26.0532, -15.81106 ], [ 26.052401, -15.80488 ], [ 26.050671, -15.79963 ], [ 26.047991, -15.79485 ], [ 26.043909, -15.79056 ], [ 26.03981, -15.78625 ], [ 26.03548, -15.78219 ], [ 26.03116, -15.77834 ], [ 26.031799, -15.77284 ], [ 26.033381, -15.76754 ], [ 26.0376, -15.76359 ], [ 26.042061, -15.76009 ], [ 26.047001, -15.75727 ], [ 26.052679, -15.75674 ], [ 26.05883, -15.75551 ], [ 26.065229, -15.75519 ], [ 26.07066, -15.75306 ], [ 26.07679, -15.75137 ], [ 26.07679, -15.75137 ], [ 26.08321, -15.75175 ], [ 26.089621, -15.75257 ], [ 26.09532, -15.75296 ], [ 26.1015, -15.75356 ], [ 26.107189, -15.75371 ], [ 26.112881, -15.75386 ], [ 26.11858, -15.75447 ], [ 26.12475, -15.75439 ], [ 26.12475, -15.75439 ], [ 26.131639, -15.75498 ], [ 26.13706, -15.75308 ] ] ] ] } }
]
}
